[{"OBJECT_NAME":"STARLINK-6270","OBJECT_ID":"2023-061AZ","EPOCH":"2026-03-09T07:37:22.125216","MEAN_MOTION":15.02532108,"ECCENTRICITY":0.00013254,"INCLINATION":43.0045,"RA_OF_ASC_NODE":173.9129,"ARG_OF_PERICENTER":267.6382,"MEAN_ANOMALY":92.4309,"EPHEMERIS_TYPE":0,"CLASSIFICATION_TYPE":"U","NORAD_CAT_ID":56421,"ELEMENT_SET_NO":999,"REV_AT_EPOCH":15699,"BSTAR":-1.3581322e-5,"MEAN_MOTION_DOT":-3.87e-6,"MEAN_MOTION_DDOT":0},{"OBJECT_NAME":"COSMOS 2251 DEB","OBJECT_ID":"1993-036BSM","EPOCH":"2026-03-05T18:25:12.242784","MEAN_MOTION":14.77934954,"ECCENTRICITY":0.01163021,"INCLINATION":73.9376,"RA_OF_ASC_NODE":193.5346,"ARG_OF_PERICENTER":49.2659,"MEAN_ANOMALY":311.8542,"EPHEMERIS_TYPE":0,"CLASSIFICATION_TYPE":"U","NORAD_CAT_ID":38197,"ELEMENT_SET_NO":999,"REV_AT_EPOCH":86980,"BSTAR":0.0037051809,"MEAN_MOTION_DOT":0.00029983,"MEAN_MOTION_DDOT":0}]
